STARLINK-36847
1 67910U 26036G   26061.16668981 -.01450012  00000+0 -58934-2 0  9995
2 67910  42.9952 295.9040 0001733 273.8915 267.2117 15.88130975  2436
